{
  "type": "FeatureCollection",
  "features": [
    {
      "type": "Feature",
      "properties": {
        "norad_id": 43706,
        "name": "BEIDOU-3 M17 (C36)",
        "group": "beidou",
        "lat": 47.06865862018371,
        "lon": -120.58308598081972,
        "alt_km": 21530.385878247165,
        "timestamp": "2025-12-18T10:51:26.071675+00:00",
        "meta_object_name": "BEIDOU-3 M17 (C36)",
        "meta_object_id": "2018-093A",
        "meta_epoch": "2025-12-15T07:56:44.520576",
        "meta_mean_motion": 1.86228523,
        "meta_eccentricity": 0.00061371,
        "meta_inclination": 54.1729,
        "meta_ra_of_asc_node": 188.5337,
        "meta_arg_of_pericenter": 307.6759,
        "meta_mean_anomaly": 184.25,
        "meta_ephemeris_type": 0,
        "meta_classification_type": "U",
        "meta_norad_cat_id": 43706,
        "meta_element_set_no": 999,
        "meta_rev_at_epoch": 4811,
        "meta_bstar": 0,
        "meta_mean_motion_dot": 1.13e-06,
        "meta_mean_motion_ddot": 0,
        "tle_line1": "1 43706U 18093A   25349.33107084  .00000113  00000+0  00000+0 0  9993",
        "tle_line2": "2 43706  54.1729 188.5337 0006137 307.6759 184.2500  1.86228523 48110"
      },
      "geometry": {
        "type": "Point",
        "coordinates": [
          -120.58308598081972,
          47.06865862018371
        ]
      }
    },
    {
      "type": "Feature",
      "properties": {
        "norad_id": 43707,
        "name": "BEIDOU-3 M18 (C37)",
        "group": "beidou",
        "lat": 18.106360422181723,
        "lon": -5.243662762811874,
        "alt_km": 21543.27092492547,
        "timestamp": "2025-12-18T10:51:26.071688+00:00",
        "meta_object_name": "BEIDOU-3 M18 (C37)",
        "meta_object_id": "2018-093B",
        "meta_epoch": "2025-12-16T14:33:42.784416",
        "meta_mean_motion": 1.8622677,
        "meta_eccentricity": 0.00063186,
        "meta_inclination": 54.1735,
        "meta_ra_of_asc_node": 188.4822,
        "meta_arg_of_pericenter": 353.2257,
        "meta_mean_anomaly": 6.8349,
        "meta_ephemeris_type": 0,
        "meta_classification_type": "U",
        "meta_norad_cat_id": 43707,
        "meta_element_set_no": 999,
        "meta_rev_at_epoch": 4813,
        "meta_bstar": 0,
        "meta_mean_motion_dot": 1.15e-06,
        "meta_mean_motion_ddot": 0,
        "tle_line1": "1 43707U 18093B   25350.60674519  .00000115  00000+0  00000+0 0  9990",
        "tle_line2": "2 43707  54.1735 188.4822 0006318 353.2257   6.8349  1.86226770 48131"
      },
      "geometry": {
        "type": "Point",
        "coordinates": [
          -5.243662762811874,
          18.106360422181723
        ]
      }
    },
    {
      "type": "Feature",
      "properties": {
        "norad_id": 44204,
        "name": "BEIDOU-3 IGSO-1 (C38)",
        "group": "beidou",
        "lat": -30.60696853416776,
        "lon": 18.266288007317698,
        "alt_km": 35821.10677404635,
        "timestamp": "2025-12-18T10:51:26.071701+00:00",
        "meta_object_name": "BEIDOU-3 IGSO-1 (C38)",
        "meta_object_id": "2019-023A",
        "meta_epoch": "2025-11-19T14:15:02.708640",
        "meta_mean_motion": 1.00252177,
        "meta_eccentricity": 0.0026966,
        "meta_inclination": 58.4003,
        "meta_ra_of_asc_node": 39.8168,
        "meta_arg_of_pericenter": 221.2202,
        "meta_mean_anomaly": 126.9723,
        "meta_ephemeris_type": 0,
        "meta_classification_type": "U",
        "meta_norad_cat_id": 44204,
        "meta_element_set_no": 999,
        "meta_rev_at_epoch": 510,
        "meta_bstar": 0,
        "meta_mean_motion_dot": -2.26e-06,
        "meta_mean_motion_ddot": 0,
        "tle_line1": "1 44204U 19023A   25323.59378135 -.00000226  00000+0  00000+0 0  9994",
        "tle_line2": "2 44204  58.4003  39.8168 0026966 221.2202 126.9723  1.00252177  5102"
      },
      "geometry": {
        "type": "Point",
        "coordinates": [
          18.266288007317698,
          -30.60696853416776
        ]
      }
    },
    {
      "type": "Feature",
      "properties": {
        "norad_id": 44231,
        "name": "BEIDOU-2 G8 (C01)",
        "group": "beidou",
        "lat": -1.0593352502489255,
        "lon": 34.67320688202042,
        "alt_km": 35769.88784373384,
        "timestamp": "2025-12-18T10:51:26.071717+00:00",
        "meta_object_name": "BEIDOU-2 G8 (C01)",
        "meta_object_id": "2019-027A",
        "meta_epoch": "2025-12-17T20:51:37.267776",
        "meta_mean_motion": 1.00266922,
        "meta_eccentricity": 0.00087563,
        "meta_inclination": 1.6746,
        "meta_ra_of_asc_node": 74.7233,
        "meta_arg_of_pericenter": 258.9366,
        "meta_mean_anomaly": 210.4054,
        "meta_ephemeris_type": 0,
        "meta_classification_type": "U",
        "meta_norad_cat_id": 44231,
        "meta_element_set_no": 999,
        "meta_rev_at_epoch": 2426,
        "meta_bstar": 0,
        "meta_mean_motion_dot": -2.25e-06,
        "meta_mean_motion_ddot": 0,
        "tle_line1": "1 44231U 19027A   25351.86918134 -.00000225  00000+0  00000+0 0  9997",
        "tle_line2": "2 44231   1.6746  74.7233 0008756 258.9366 210.4054  1.00266922 24269"
      },
      "geometry": {
        "type": "Point",
        "coordinates": [
          34.67320688202042,
          -1.0593352502489255
        ]
      }
    },
    {
      "type": "Feature",
      "properties": {
        "norad_id": 44337,
        "name": "BEIDOU-3 IGSO-2 (C39)",
        "group": "beidou",
        "lat": -23.66018651485221,
        "lon": -1.8118908230229238,
        "alt_km": 35633.68320320515,
        "timestamp": "2025-12-18T10:51:26.071730+00:00",
        "meta_object_name": "BEIDOU-3 IGSO-2 (C39)",
        "meta_object_id": "2019-035A",
        "meta_epoch": "2025-12-17T20:45:00.400608",
        "meta_mean_motion": 1.00269779,
        "meta_eccentricity": 0.00374701,
        "meta_inclination": 55.227,
        "meta_ra_of_asc_node": 160.4563,
        "meta_arg_of_pericenter": 202.3425,
        "meta_mean_anomaly": 154.6367,
        "meta_ephemeris_type": 0,
        "meta_classification_type": "U",
        "meta_norad_cat_id": 44337,
        "meta_element_set_no": 999,
        "meta_rev_at_epoch": 2384,
        "meta_bstar": 0,
        "meta_mean_motion_dot": -4.5e-07,
        "meta_mean_motion_ddot": 0,
        "tle_line1": "1 44337U 19035A   25351.86458797 -.00000045  00000+0  00000+0 0  9997",
        "tle_line2": "2 44337  55.2270 160.4563 0037470 202.3425 154.6367  1.00269779 23848"
      },
      "geometry": {
        "type": "Point",
        "coordinates": [
          -1.8118908230229238,
          -23.66018651485221
        ]
      }
    },
    {
      "type": "Feature",
      "properties": {
        "norad_id": 44542,
        "name": "BEIDOU-3 M24 (C46)",
        "group": "beidou",
        "lat": 49.798888550590895,
        "lon": -49.17968903980036,
        "alt_km": 21519.96946003909,
        "timestamp": "2025-12-18T10:51:26.071742+00:00",
        "meta_object_name": "BEIDOU-3 M24 (C46)",
        "meta_object_id": "2019-061A",
        "meta_epoch": "2025-12-16T03:22:44.327712",
        "meta_mean_motion": 1.86229353,
        "meta_eccentricity": 0.00096014,
        "meta_inclination": 54.4001,
        "meta_ra_of_asc_node": 188.9011,
        "meta_arg_of_pericenter": 24.8001,
        "meta_mean_anomaly": 335.316,
        "meta_ephemeris_type": 0,
        "meta_classification_type": "U",
        "meta_norad_cat_id": 44542,
        "meta_element_set_no": 999,
        "meta_rev_at_epoch": 4238,
        "meta_bstar": 0,
        "meta_mean_motion_dot": 1.15e-06,
        "meta_mean_motion_ddot": 0,
        "tle_line1": "1 44542U 19061A   25350.14079083  .00000115  00000+0  00000+0 0  9998",
        "tle_line2": "2 44542  54.4001 188.9011 0009601  24.8001 335.3160  1.86229353 42381"
      },
      "geometry": {
        "type": "Point",
        "coordinates": [
          -49.17968903980036,
          49.798888550590895
        ]
      }
    },
    {
      "type": "Feature",
      "properties": {
        "norad_id": 44543,
        "name": "BEIDOU-3 M23 (C45)",
        "group": "beidou",
        "lat": 18.186290400659203,
        "lon": -157.58215057081551,
        "alt_km": 21509.22268190796,
        "timestamp": "2025-12-18T10:51:26.071755+00:00",
        "meta_object_name": "BEIDOU-3 M23 (C45)",
        "meta_object_id": "2019-061B",
        "meta_epoch": "2025-12-16T19:20:04.225344",
        "meta_mean_motion": 1.86227685,
        "meta_eccentricity": 0.00060954,
        "meta_inclination": 54.399,
        "meta_ra_of_asc_node": 188.847,
        "meta_arg_of_pericenter": 24.4715,
        "meta_mean_anomaly": 334.1063,
        "meta_ephemeris_type": 0,
        "meta_classification_type": "U",
        "meta_norad_cat_id": 44543,
        "meta_element_set_no": 999,
        "meta_rev_at_epoch": 4239,
        "meta_bstar": 0,
        "meta_mean_motion_dot": 1.15e-06,
        "meta_mean_motion_ddot": 0,
        "tle_line1": "1 44543U 19061B   25350.80560446  .00000115  00000+0  00000+0 0  9990",
        "tle_line2": "2 44543  54.3990 188.8470 0006095  24.4715 334.1063  1.86227685 42394"
      },
      "geometry": {
        "type": "Point",
        "coordinates": [
          -157.58215057081551,
          18.186290400659203
        ]
      }
    }
  ]
}